STARLINK-36907          
1 67940U 26037J   26080.50001157 -.01886619  00000+0 -20961-1 0  9998
2 67940  42.9999 126.3984 0001137 274.2801 303.0024 15.65127306  5091
STARLINK-36927          
1 67941U 26037K   26080.50001157 -.01890977  00000+0 -23501-1 0  9994
2 67941  42.9993 126.4863 0000956 282.2372 259.4903 15.62328461  5095
STARLINK-36914          
1 67942U 26037L   26080.50001157 -.01890565  00000+0 -17693-1 0  9993
2 67942  42.9995 126.2876 0001184 275.5189 346.3457 15.69306248  5091
STARLINK-36851          
1 67943U 26037M   26080.50001157 -.01887907  00000+0 -22560-1 0  9999
2 67943  42.9994 126.4781 0001013 277.4864 267.7270 15.63313509  5091
STARLINK-36892          
1 67944U 26037N   26080.50001157 -.01887229  00000+0 -21840-1 0  9997
2 67944  42.9993 126.4257 0001024 275.7415 290.6735 15.64115973  5091
STARLINK-36908          
1 67945U 26037P   26080.50001157 -.01877549  00000+0 -20998-1 0  9995
2 67945  42.9995 126.3723 0001048 275.2437 312.3381 15.64950290  5094
STARLINK-36909          
1 67946U 26037Q   26080.50001157 -.01837657  00000+0 -16020-1 0  9993
2 67946  42.9993 126.1695 0001324 277.2598  31.4677 15.71419164  5091
STARLINK-36920          
1 67947U 26037R   26080.50001157 -.01869152  00000+0 -25149-1 0  9991
2 67947  42.9991 126.5448 0000977 283.9806 233.8975 15.60259754  5093
STARLINK-36873          
1 67948U 26037S   26080.50001157 -.01871454  00000+0 -26422-1 0  9995
2 67948  42.9992 126.5926 0000999 293.9296 204.2470 15.59016697  5091
STARLINK-36863          
1 67949U 26037T   26080.50001157 -.01882947  00000+0 -22251-1 0  9991
2 67949  42.9995 126.3814 0001141 276.7991 306.9700 15.63583775  5097
STARLINK-36887          
1 67950U 26037U   26080.50001157 -.00055065  00000+0 -93949-3 0  9999
2 67950  42.9994 127.1335 0001284 295.3566 344.7954 15.50576308  5099
STARLINK-36897          
1 67951U 26037V   26080.50001157 -.01881853  00000+0 -23157-1 0  9995
2 67951  42.9996 126.4009 0001095 276.8195 298.8237 15.62562442  5094
STARLINK-36381          
1 67952U 26037W   26080.50001157 -.01846415  00000+0 -24048-1 0  9991
2 67952  42.9996 126.4439 0000988 291.4043 266.9292 15.61055448  5096
STARLINK-36824          
1 67953U 26037X   26080.50001157 -.01056846  00000+0 -19324-1 0  9994
2 67953  42.9995 126.9757 0001030 280.1706  63.9472 15.51313760  5092
STARLINK-36869          
1 67954U 26037Y   26080.50001157 -.00624685  00000+0 -11369-1 0  9997
2 67954  42.9994 126.9662 0001170 305.5324  41.6447 15.50943390  5092
STARLINK-36872          
1 67955U 26037Z   26080.50001157 -.01886462  00000+0 -21209-1 0  9996
2 67955  42.9994 126.2567 0001279 271.1941   1.5743 15.64832455  5091
STARLINK-36918          
1 67956U 26037AA  26080.50001157 -.01883824  00000+0 -24258-1 0  9993
2 67956  42.9993 126.3849 0001123 275.2061 306.2418 15.61411448  5097
STARLINK-36829          
1 67957U 26037AB  26080.50001157 -.01849634  00000+0 -27109-1 0  9993
2 67957  42.9995 126.5689 0001111 288.8355 218.8340 15.57997747  5095
STARLINK-36799          
1 67958U 26037AC  26080.50001157 -.01879714  00000+0 -19106-1 0  9994
2 67958  42.9992 126.1520 0001340 277.3501  37.8078 15.67297976  5098
STARLINK-36834          
1 67959U 26037AD  26080.50001157 -.01848249  00000+0 -27314-1 0  9994
2 67959  42.9993 126.5261 0001212 290.1976 234.3136 15.57776386  5098
STARLINK-36841          
1 67960U 26037AE  26080.50001157 -.01850095  00000+0 -26344-1 0  9990
2 67960  42.9996 126.4866 0001044 283.8896 256.3052 15.58755152  5096
STARLINK-36912          
1 67961U 26038A   26080.50001157 -.02222639  00000+0 -39923-1 0  9997
2 67961  97.2853  91.3182 0001857  97.6371 171.5706 15.53334275  5104
STARLINK-36881          
1 67962U 26038B   26080.50001157 -.02208861  00000+0 -39113-1 0  9990
2 67962  97.2858  91.3239 0002012 100.8216 180.1443 15.53701500  5105
STARLINK-36357          
1 67963U 26038C   26080.50001157  .00130762  00000+0  23740-2 0  9991
2 67963  97.2850  91.2905 0001110  96.3832 106.2021 15.49095686  5105
STARLINK-36349          
1 67964U 26038D   26080.50001157  .00130873  00000+0  23739-2 0  9993
2 67964  97.2850  91.2872 0001005 115.4496  79.9302 15.49120059  5102
STARLINK-36806          
1 67965U 26038E   26080.50001157 -.02211010  00000+0 -37872-1 0  9993
2 67965  97.2851  91.3376 0001888 114.7383 197.7868 15.54612571  5107
STARLINK-36820          
1 67966U 26038F   26080.50001157 -.02294828  00000+0 -38908-1 0  9993
2 67966  97.2852  91.3398 0001568 101.0575 222.8781 15.55028919  5102
STARLINK-36819          
1 67967U 26038G   26080.50001157 -.00117427  00000+0 -21863-2 0  9994
2 67967  97.2858  91.1862 0001506  90.8924 228.8440 15.49232589  5109
STARLINK-36812          
1 67968U 26038H   26080.50001157 -.02285402  00000+0 -38176-1 0  9990
2 67968  97.2853  91.3474 0001397 103.2941 238.2536 15.55418006  5100
